ONEWEB-0350             
1 49214U 21083AE  25247.07382035 -.00003491  00000+0 -95969-2 0  9990
2 49214  87.9025  17.0574 0001786 112.0193 248.1126 13.13486727193375
ONEWEB-0351             
1 49215U 21083AF  25247.20154881  .00000039  00000+0  64712-4 0  9999
2 49215  87.9299 331.4398 0001021 107.5649 252.5596 13.20771092199021
ONEWEB-0352             
1 49216U 21083AG  25247.05436398  .00000215  00000+0  55343-3 0  9994
2 49216  87.9010  17.0984 0001265  98.8109 261.3163 13.13469141193465
ONEWEB-0354             
1 49217U 21083AH  25247.22692606  .00000033  00000+0  48252-4 0  9990
2 49217  87.9295 331.4334 0002011 107.0286 253.1068 13.20773356199061
ONEWEB-0355             
1 49218U 21083AJ  25246.93091796 -.00000234  00000+0 -67527-3 0  9991
2 49218  87.9022  17.1272 0001639 104.6242 255.5069 13.13468702193327
ONEWEB-0357             
1 49219U 21083AK  25247.22376673  .00000032  00000+0  45931-4 0  9995
2 49219  87.9288 331.4350 0001751 102.1094 258.0236 13.20773887199066
ONEWEB-0332             
1 49279U 21090A   25247.24411710 -.00000013  00000+0 -68939-4 0  9997
2 49279  87.9091 346.6448 0001672  93.8783 266.2538 13.14502960190010
ONEWEB-0347             
1 49280U 21090B   25247.21430198 -.00000004  00000+0 -42169-4 0  9994
2 49280  87.9291 331.4497 0001861  87.4465 272.6882 13.20769704193290
ONEWEB-0349             
1 49281U 21090C   25247.24586491 -.00000242  00000+0 -62624-3 0  9997
2 49281  87.9282 331.4446 0001790 101.0354 259.0980 13.20771450192081
ONEWEB-0353             
1 49282U 21090D   25247.23619197 -.00000160  00000+0 -46657-3 0  9994
2 49282  87.9083 346.6321 0001722  92.5706 267.5621 13.14503444190017
ONEWEB-0356             
1 49283U 21090E   25247.24428934  .00000062  00000+0  12130-3 0  9991
2 49283  87.9286 331.4366 0002708  90.0376 270.1068 13.20770031192084
ONEWEB-0358             
1 49284U 21090F   25247.19852129  .00000115  00000+0  25108-3 0  9991
2 49284  87.9296 331.4383 0002000 100.8912 259.2447 13.20770050192806
ONEWEB-0359             
1 49285U 21090G   25247.19536453  .00000112  00000+0  24335-3 0  9999
2 49285  87.9287 331.4472 0002113 108.6834 251.4529 13.20773080192788
ONEWEB-0360             
1 49286U 21090H   25247.18591098  .00000142  00000+0  31676-3 0  9994
2 49286  87.9286 331.4579 0001934 104.4600 255.6749 13.20772154192096
ONEWEB-0361             
1 49287U 21090J   25247.24271267  .00000042  00000+0  71578-4 0  9990
2 49287  87.9289 331.4421 0002047  97.0555 263.0811 13.20773741192555
ONEWEB-0362             
1 49288U 21090K   25247.04463679 -.00000243  00000+0 -63947-3 0  9994
2 49288  87.9282   1.8827 0001673 104.0708 256.0611 13.19724812189177
