[{"OBJECT_NAME":"ONEWEB-0350","OBJECT_ID":"2021-083AE","EPOCH":"2025-09-04T01:46:18.078240","MEAN_MOTION":13.13486727,"ECCENTRICITY":0.00017862,"INCLINATION":87.9025,"RA_OF_ASC_NODE":17.0574,"ARG_OF_PERICENTER":112.0193,"MEAN_ANOMALY":248.1126,"EPHEMERIS_TYPE":0,"CLASSIFICATION_TYPE":"U","NORAD_CAT_ID":49214,"ELEMENT_SET_NO":999,"REV_AT_EPOCH":19337,"BSTAR":-0.0095969038,"MEAN_MOTION_DOT":-3.491e-5,"MEAN_MOTION_DDOT":0},{"OBJECT_NAME":"ONEWEB-0351","OBJECT_ID":"2021-083AF","EPOCH":"2025-09-04T04:50:13.817184","MEAN_MOTION":13.20771092,"ECCENTRICITY":0.00010215,"INCLINATION":87.9299,"RA_OF_ASC_NODE":331.4398,"ARG_OF_PERICENTER":107.5649,"MEAN_ANOMALY":252.5596,"EPHEMERIS_TYPE":0,"CLASSIFICATION_TYPE":"U","NORAD_CAT_ID":49215,"ELEMENT_SET_NO":999,"REV_AT_EPOCH":19902,"BSTAR":6.4711853e-5,"MEAN_MOTION_DOT":3.9e-7,"MEAN_MOTION_DDOT":0},{"OBJECT_NAME":"ONEWEB-0352","OBJECT_ID":"2021-083AG","EPOCH":"2025-09-04T01:18:17.047872","MEAN_MOTION":13.13469141,"ECCENTRICITY":0.0001265,"INCLINATION":87.901,"RA_OF_ASC_NODE":17.0984,"ARG_OF_PERICENTER":98.8109,"MEAN_ANOMALY":261.3163,"EPHEMERIS_TYPE":0,"CLASSIFICATION_TYPE":"U","NORAD_CAT_ID":49216,"ELEMENT_SET_NO":999,"REV_AT_EPOCH":19346,"BSTAR":0.00055342794,"MEAN_MOTION_DOT":2.15e-6,"MEAN_MOTION_DDOT":0},{"OBJECT_NAME":"ONEWEB-0354","OBJECT_ID":"2021-083AH","EPOCH":"2025-09-04T05:26:46.411584","MEAN_MOTION":13.20773356,"ECCENTRICITY":0.00020112,"INCLINATION":87.9295,"RA_OF_ASC_NODE":331.4334,"ARG_OF_PERICENTER":107.0286,"MEAN_ANOMALY":253.1068,"EPHEMERIS_TYPE":0,"CLASSIFICATION_TYPE":"U","NORAD_CAT_ID":49217,"ELEMENT_SET_NO":999,"REV_AT_EPOCH":19906,"BSTAR":4.8252477e-5,"MEAN_MOTION_DOT":3.3e-7,"MEAN_MOTION_DDOT":0},{"OBJECT_NAME":"ONEWEB-0355","OBJECT_ID":"2021-083AJ","EPOCH":"2025-09-03T22:20:31.311744","MEAN_MOTION":13.13468702,"ECCENTRICITY":0.00016394,"INCLINATION":87.9022,"RA_OF_ASC_NODE":17.1272,"ARG_OF_PERICENTER":104.6242,"MEAN_ANOMALY":255.5069,"EPHEMERIS_TYPE":0,"CLASSIFICATION_TYPE":"U","NORAD_CAT_ID":49218,"ELEMENT_SET_NO":999,"REV_AT_EPOCH":19332,"BSTAR":-0.00067527035,"MEAN_MOTION_DOT":-2.34e-6,"MEAN_MOTION_DDOT":0},{"OBJECT_NAME":"ONEWEB-0357","OBJECT_ID":"2021-083AK","EPOCH":"2025-09-04T05:22:13.445472","MEAN_MOTION":13.20773887,"ECCENTRICITY":0.00017515,"INCLINATION":87.9288,"RA_OF_ASC_NODE":331.435,"ARG_OF_PERICENTER":102.1094,"MEAN_ANOMALY":258.0236,"EPHEMERIS_TYPE":0,"CLASSIFICATION_TYPE":"U","NORAD_CAT_ID":49219,"ELEMENT_SET_NO":999,"REV_AT_EPOCH":19906,"BSTAR":4.5930531e-5,"MEAN_MOTION_DOT":3.2e-7,"MEAN_MOTION_DDOT":0},{"OBJECT_NAME":"ONEWEB-0332","OBJECT_ID":"2021-090A","EPOCH":"2025-09-04T05:51:31.717440","MEAN_MOTION":13.1450296,"ECCENTRICITY":0.00016728,"INCLINATION":87.9091,"RA_OF_ASC_NODE":346.6448,"ARG_OF_PERICENTER":93.8783,"MEAN_ANOMALY":266.2538,"EPHEMERIS_TYPE":0,"CLASSIFICATION_TYPE":"U","NORAD_CAT_ID":49279,"ELEMENT_SET_NO":999,"REV_AT_EPOCH":19001,"BSTAR":-6.8939074e-5,"MEAN_MOTION_DOT":-1.3e-7,"MEAN_MOTION_DDOT":0},{"OBJECT_NAME":"ONEWEB-0347","OBJECT_ID":"2021-090B","EPOCH":"2025-09-04T05:08:35.691072","MEAN_MOTION":13.20769704,"ECCENTRICITY":0.00018614,"INCLINATION":87.9291,"RA_OF_ASC_NODE":331.4497,"ARG_OF_PERICENTER":87.4465,"MEAN_ANOMALY":272.6882,"EPHEMERIS_TYPE":0,"CLASSIFICATION_TYPE":"U","NORAD_CAT_ID":49280,"ELEMENT_SET_NO":999,"REV_AT_EPOCH":19329,"BSTAR":-4.2168903e-5,"MEAN_MOTION_DOT":-4.0e-8,"MEAN_MOTION_DDOT":0},{"OBJECT_NAME":"ONEWEB-0349","OBJECT_ID":"2021-090C","EPOCH":"2025-09-04T05:54:02.728224","MEAN_MOTION":13.2077145,"ECCENTRICITY":0.00017908,"INCLINATION":87.9282,"RA_OF_ASC_NODE":331.4446,"ARG_OF_PERICENTER":101.0354,"MEAN_ANOMALY":259.098,"EPHEMERIS_TYPE":0,"CLASSIFICATION_TYPE":"U","NORAD_CAT_ID":49281,"ELEMENT_SET_NO":999,"REV_AT_EPOCH":19208,"BSTAR":-0.00062624497,"MEAN_MOTION_DOT":-2.42e-6,"MEAN_MOTION_DDOT":0},{"OBJECT_NAME":"ONEWEB-0353","OBJECT_ID":"2021-090D","EPOCH":"2025-09-04T05:40:06.986208","MEAN_MOTION":13.14503444,"ECCENTRICITY":0.0001722,"INCLINATION":87.9083,"RA_OF_ASC_NODE":346.6321,"ARG_OF_PERICENTER":92.5706,"MEAN_ANOMALY":267.5621,"EPHEMERIS_TYPE":0,"CLASSIFICATION_TYPE":"U","NORAD_CAT_ID":49282,"ELEMENT_SET_NO":999,"REV_AT_EPOCH":19001,"BSTAR":-0.00046657,"MEAN_MOTION_DOT":-1.6e-6,"MEAN_MOTION_DDOT":0},{"OBJECT_NAME":"ONEWEB-0356","OBJECT_ID":"2021-090E","EPOCH":"2025-09-04T05:51:46.598976","MEAN_MOTION":13.20770031,"ECCENTRICITY":0.00027083,"INCLINATION":87.9286,"RA_OF_ASC_NODE":331.4366,"ARG_OF_PERICENTER":90.0376,"MEAN_ANOMALY":270.1068,"EPHEMERIS_TYPE":0,"CLASSIFICATION_TYPE":"U","NORAD_CAT_ID":49283,"ELEMENT_SET_NO":999,"REV_AT_EPOCH":19208,"BSTAR":0.00012129669,"MEAN_MOTION_DOT":6.2e-7,"MEAN_MOTION_DDOT":0},{"OBJECT_NAME":"ONEWEB-0358","OBJECT_ID":"2021-090F","EPOCH":"2025-09-04T04:45:52.239456","MEAN_MOTION":13.2077005,"ECCENTRICITY":0.00020009,"INCLINATION":87.9296,"RA_OF_ASC_NODE":331.4383,"ARG_OF_PERICENTER":100.8912,"MEAN_ANOMALY":259.2447,"EPHEMERIS_TYPE":0,"CLASSIFICATION_TYPE":"U","NORAD_CAT_ID":49284,"ELEMENT_SET_NO":999,"REV_AT_EPOCH":19280,"BSTAR":0.00025107717,"MEAN_MOTION_DOT":1.15e-6,"MEAN_MOTION_DDOT":0},{"OBJECT_NAME":"ONEWEB-0359","OBJECT_ID":"2021-090G","EPOCH":"2025-09-04T04:41:19.495392","MEAN_MOTION":13.2077308,"ECCENTRICITY":0.00021131,"INCLINATION":87.9287,"RA_OF_ASC_NODE":331.4472,"ARG_OF_PERICENTER":108.6834,"MEAN_ANOMALY":251.4529,"EPHEMERIS_TYPE":0,"CLASSIFICATION_TYPE":"U","NORAD_CAT_ID":49285,"ELEMENT_SET_NO":999,"REV_AT_EPOCH":19278,"BSTAR":0.00024334617,"MEAN_MOTION_DOT":1.12e-6,"MEAN_MOTION_DDOT":0},{"OBJECT_NAME":"ONEWEB-0360","OBJECT_ID":"2021-090H","EPOCH":"2025-09-04T04:27:42.708672","MEAN_MOTION":13.20772154,"ECCENTRICITY":0.00019347,"INCLINATION":87.9286,"RA_OF_ASC_NODE":331.4579,"ARG_OF_PERICENTER":104.46,"MEAN_ANOMALY":255.6749,"EPHEMERIS_TYPE":0,"CLASSIFICATION_TYPE":"U","NORAD_CAT_ID":49286,"ELEMENT_SET_NO":999,"REV_AT_EPOCH":19209,"BSTAR":0.00031675783,"MEAN_MOTION_DOT":1.42e-6,"MEAN_MOTION_DDOT":0},{"OBJECT_NAME":"ONEWEB-0361","OBJECT_ID":"2021-090J","EPOCH":"2025-09-04T05:49:30.374688","MEAN_MOTION":13.20773741,"ECCENTRICITY":0.00020473,"INCLINATION":87.9289,"RA_OF_ASC_NODE":331.4421,"ARG_OF_PERICENTER":97.0555,"MEAN_ANOMALY":263.0811,"EPHEMERIS_TYPE":0,"CLASSIFICATION_TYPE":"U","NORAD_CAT_ID":49287,"ELEMENT_SET_NO":999,"REV_AT_EPOCH":19255,"BSTAR":7.1577986e-5,"MEAN_MOTION_DOT":4.2e-7,"MEAN_MOTION_DDOT":0},{"OBJECT_NAME":"ONEWEB-0362","OBJECT_ID":"2021-090K","EPOCH":"2025-09-04T01:04:16.618656","MEAN_MOTION":13.19724812,"ECCENTRICITY":0.00016738,"INCLINATION":87.9282,"RA_OF_ASC_NODE":1.8827,"ARG_OF_PERICENTER":104.0708,"MEAN_ANOMALY":256.0611,"EPHEMERIS_TYPE":0,"CLASSIFICATION_TYPE":"U","NORAD_CAT_ID":49288,"ELEMENT_SET_NO":999,"REV_AT_EPOCH":18917,"BSTAR":-0.00063946662,"MEAN_MOTION_DOT":-2.43e-6,"MEAN_MOTION_DDOT":0}]
